IRIDIUM 150             
1 43257U 18030J   24033.18128734  .00000129  00000+0  38837-4 0  9993
2 43257  86.3966 292.3929 0001683  92.0944 268.0444 14.34217769306059
IRIDIUM 143             
1 43258U 18030K   24033.16226101  .00000049  00000+0  10295-4 0  9998
2 43258  86.3969 292.4591 0001890  99.3048 260.8362 14.34217583305999
IRIDIUM 161             
1 43478U 18047C   24033.15748323  .00000423  00000+0  11964-3 0  9993
2 43478  86.4460  90.4371 0002235  92.5008 267.6449 14.43267812300229
IRIDIUM 152             
1 43479U 18047D   24032.57683187  .00000023  00000+0  11869-5 0  9997
2 43479  86.3935  90.5392 0002242 100.8341 259.3107 14.34217753298270
IRIDIUM 147             
1 43480U 18047E   24033.21108502  .00000300  00000+0  99904-4 0  9997
2 43480  86.3937  90.2637 0002146  87.5819 272.5623 14.34215829298369
IRIDIUM 110             
1 43481U 18047F   24032.58951629  .00000251  00000+0  82525-4 0  9999
2 43481  86.3938  90.5931 0002022  80.6900 279.4524 14.34217997298262
IRIDIUM 162             
1 43482U 18047G   24032.94319364  .00000422  00000+0  11942-3 0  9998
2 43482  86.4459  90.4286 0002210  93.0178 267.1276 14.43271356300180
IRIDIUM 160             
1 43569U 18061A   24033.51211011  .00000297  00000+0  98931-4 0  9998
2 43569  86.3928  58.5514 0002587  84.5388 275.6103 14.34216444289298
